ONEWEB-0588             
1 55153U 23004P   25293.26211745  .00000101  00000+0  22426-3 0  9997
2 55153  87.9226  23.1366 0002089  90.2799 269.8572 13.18685345138073
ONEWEB-0598             
1 55154U 23004Q   25293.28321110  .00000352  00000+0  95701-3 0  9992
2 55154  87.8824  68.8548 0002209 105.4086 254.7286 13.11419296134453
ONEWEB-0599             
1 55155U 23004R   25293.29441727  .00000061  00000+0  12512-3 0  9997
2 55155  87.9116  53.5728 0001774 104.8095 255.3233 13.17648528135895
ONEWEB-0614             
1 55156U 23004S   25293.27813655  .00000244  00000+0  65216-3 0  9991
2 55156  87.8826  68.8655 0001546  83.7224 276.4080 13.11418353134390
ONEWEB-0616             
1 55157U 23004T   25293.26067700  .00000069  00000+0  14562-3 0  9996
2 55157  87.9114  53.5702 0001616 136.1476 223.9784 13.17649299136106
ONEWEB-0617             
1 55158U 23004U   25293.11365992 -.00000282  00000+0 -83055-3 0  9997
2 55158  87.8822  68.8769 0001759  86.1877 273.9452 13.11419382134399
ONEWEB-0618             
1 55159U 23004V   25293.21732822  .00008545  00000+0  52937-3 0  9992
2 55159  86.9053 274.8871 0016753 102.5867 257.7246 15.09518684146018
ONEWEB-0619             
1 55160U 23004W   25293.29272529  .00000043  00000+0  77032-4 0  9994
2 55160  87.9113  53.5382 0001179  94.6873 265.4394 13.17647078136006
ONEWEB-0620             
1 55161U 23004X   25292.80338353 -.00000476  00000+0 -13780-2 0  9999
2 55161  87.8821  68.9593 0001816  95.7384 264.3951 13.11418530134326
ONEWEB-0621             
1 55162U 23004Y   25293.28830381  .00000466  00000+0  12783-2 0  9990
2 55162  87.8836  68.8267 0001433  89.7904 270.3388 13.11418088134369
ONEWEB-0622             
1 55163U 23004Z   25293.29340226  .00000512  00000+0  14096-2 0  9997
2 55163  87.8822  68.8408 0001950  73.4121 286.7221 13.11416624134357
ONEWEB-0623             
1 55164U 23004AA  25293.28769924 -.00002555  00000+0 -66183-2 0  9992
2 55164  87.9113  53.5925 0000738  62.9131 297.2075 13.17626737135993
ONEWEB-0624             
1 55165U 23004AB  25293.28811067  .00000461  00000+0  12366-2 0  9995
2 55165  87.8958  38.2913 0001607  91.9474 268.1839 13.12916210136590
ONEWEB-0625             
1 55166U 23004AC  25293.27753733  .00000004  00000+0 -22225-4 0  9991
2 55166  87.9105  53.5903 0001614 104.2577 255.8734 13.17648362135989
ONEWEB-0626             
1 55167U 23004AD  25293.26742922  .00000057  00000+0  11300-3 0  9997
2 55167  87.9107  53.5915 0002172 102.9493 257.1881 13.17648877135986
ONEWEB-0627             
1 55168U 23004AE  25293.25561848  .00000074  00000+0  15783-3 0  9991
2 55168  87.9106  53.5950 0001666  78.6021 281.5297 13.17649788135982
ONEWEB-0628             
1 55169U 23004AF  25293.25696247 -.00000619  00000+0 -17564-2 0  9999
2 55169  87.8969  38.3102 0001576  84.1714 275.9594 13.12445916136564
