[{"OBJECT_NAME":"ONEWEB-0588","OBJECT_ID":"2023-004P","EPOCH":"2025-10-20T06:17:26.947680","MEAN_MOTION":13.18685345,"ECCENTRICITY":0.00020895,"INCLINATION":87.9226,"RA_OF_ASC_NODE":23.1366,"ARG_OF_PERICENTER":90.2799,"MEAN_ANOMALY":269.8572,"EPHEMERIS_TYPE":0,"CLASSIFICATION_TYPE":"U","NORAD_CAT_ID":55153,"ELEMENT_SET_NO":999,"REV_AT_EPOCH":13807,"BSTAR":0.00022426342,"MEAN_MOTION_DOT":1.01e-6,"MEAN_MOTION_DDOT":0},{"OBJECT_NAME":"ONEWEB-0598","OBJECT_ID":"2023-004Q","EPOCH":"2025-10-20T06:47:49.439040","MEAN_MOTION":13.11419296,"ECCENTRICITY":0.00022093,"INCLINATION":87.8824,"RA_OF_ASC_NODE":68.8548,"ARG_OF_PERICENTER":105.4086,"MEAN_ANOMALY":254.7286,"EPHEMERIS_TYPE":0,"CLASSIFICATION_TYPE":"U","NORAD_CAT_ID":55154,"ELEMENT_SET_NO":999,"REV_AT_EPOCH":13445,"BSTAR":0.00095700936,"MEAN_MOTION_DOT":3.52e-6,"MEAN_MOTION_DDOT":0},{"OBJECT_NAME":"ONEWEB-0599","OBJECT_ID":"2023-004R","EPOCH":"2025-10-20T07:03:57.652128","MEAN_MOTION":13.17648528,"ECCENTRICITY":0.00017746,"INCLINATION":87.9116,"RA_OF_ASC_NODE":53.5728,"ARG_OF_PERICENTER":104.8095,"MEAN_ANOMALY":255.3233,"EPHEMERIS_TYPE":0,"CLASSIFICATION_TYPE":"U","NORAD_CAT_ID":55155,"ELEMENT_SET_NO":999,"REV_AT_EPOCH":13589,"BSTAR":0.0001251179,"MEAN_MOTION_DOT":6.1e-7,"MEAN_MOTION_DDOT":0},{"OBJECT_NAME":"ONEWEB-0614","OBJECT_ID":"2023-004S","EPOCH":"2025-10-20T06:40:30.997920","MEAN_MOTION":13.11418353,"ECCENTRICITY":0.00015466,"INCLINATION":87.8826,"RA_OF_ASC_NODE":68.8655,"ARG_OF_PERICENTER":83.7224,"MEAN_ANOMALY":276.408,"EPHEMERIS_TYPE":0,"CLASSIFICATION_TYPE":"U","NORAD_CAT_ID":55156,"ELEMENT_SET_NO":999,"REV_AT_EPOCH":13439,"BSTAR":0.00065215929,"MEAN_MOTION_DOT":2.44e-6,"MEAN_MOTION_DDOT":0},{"OBJECT_NAME":"ONEWEB-0616","OBJECT_ID":"2023-004T","EPOCH":"2025-10-20T06:15:22.492800","MEAN_MOTION":13.17649299,"ECCENTRICITY":0.00016162,"INCLINATION":87.9114,"RA_OF_ASC_NODE":53.5702,"ARG_OF_PERICENTER":136.1476,"MEAN_ANOMALY":223.9784,"EPHEMERIS_TYPE":0,"CLASSIFICATION_TYPE":"U","NORAD_CAT_ID":55157,"ELEMENT_SET_NO":999,"REV_AT_EPOCH":13610,"BSTAR":0.00014562384,"MEAN_MOTION_DOT":6.9e-7,"MEAN_MOTION_DDOT":0},{"OBJECT_NAME":"ONEWEB-0617","OBJECT_ID":"2023-004U","EPOCH":"2025-10-20T02:43:40.217088","MEAN_MOTION":13.11419382,"ECCENTRICITY":0.00017597,"INCLINATION":87.8822,"RA_OF_ASC_NODE":68.8769,"ARG_OF_PERICENTER":86.1877,"MEAN_ANOMALY":273.9452,"EPHEMERIS_TYPE":0,"CLASSIFICATION_TYPE":"U","NORAD_CAT_ID":55158,"ELEMENT_SET_NO":999,"REV_AT_EPOCH":13439,"BSTAR":-0.00083054822,"MEAN_MOTION_DOT":-2.82e-6,"MEAN_MOTION_DDOT":0},{"OBJECT_NAME":"ONEWEB-0618","OBJECT_ID":"2023-004V","EPOCH":"2025-10-20T05:12:57.158208","MEAN_MOTION":15.09518684,"ECCENTRICITY":0.00167538,"INCLINATION":86.9053,"RA_OF_ASC_NODE":274.8871,"ARG_OF_PERICENTER":102.5867,"MEAN_ANOMALY":257.7246,"EPHEMERIS_TYPE":0,"CLASSIFICATION_TYPE":"U","NORAD_CAT_ID":55159,"ELEMENT_SET_NO":999,"REV_AT_EPOCH":14601,"BSTAR":0.0005293739,"MEAN_MOTION_DOT":8.545e-5,"MEAN_MOTION_DDOT":0},{"OBJECT_NAME":"ONEWEB-0619","OBJECT_ID":"2023-004W","EPOCH":"2025-10-20T07:01:31.465056","MEAN_MOTION":13.17647078,"ECCENTRICITY":0.00011791,"INCLINATION":87.9113,"RA_OF_ASC_NODE":53.5382,"ARG_OF_PERICENTER":94.6873,"MEAN_ANOMALY":265.4394,"EPHEMERIS_TYPE":0,"CLASSIFICATION_TYPE":"U","NORAD_CAT_ID":55160,"ELEMENT_SET_NO":999,"REV_AT_EPOCH":13600,"BSTAR":7.7032307e-5,"MEAN_MOTION_DOT":4.3e-7,"MEAN_MOTION_DDOT":0},{"OBJECT_NAME":"ONEWEB-0620","OBJECT_ID":"2023-004X","EPOCH":"2025-10-19T19:16:52.336992","MEAN_MOTION":13.1141853,"ECCENTRICITY":0.0001816,"INCLINATION":87.8821,"RA_OF_ASC_NODE":68.9593,"ARG_OF_PERICENTER":95.7384,"MEAN_ANOMALY":264.3951,"EPHEMERIS_TYPE":0,"CLASSIFICATION_TYPE":"U","NORAD_CAT_ID":55161,"ELEMENT_SET_NO":999,"REV_AT_EPOCH":13432,"BSTAR":-0.0013779726,"MEAN_MOTION_DOT":-4.76e-6,"MEAN_MOTION_DDOT":0},{"OBJECT_NAME":"ONEWEB-0621","OBJECT_ID":"2023-004Y","EPOCH":"2025-10-20T06:55:09.449184","MEAN_MOTION":13.11418088,"ECCENTRICITY":0.00014335,"INCLINATION":87.8836,"RA_OF_ASC_NODE":68.8267,"ARG_OF_PERICENTER":89.7904,"MEAN_ANOMALY":270.3388,"EPHEMERIS_TYPE":0,"CLASSIFICATION_TYPE":"U","NORAD_CAT_ID":55162,"ELEMENT_SET_NO":999,"REV_AT_EPOCH":13436,"BSTAR":0.0012783309,"MEAN_MOTION_DOT":4.66e-6,"MEAN_MOTION_DDOT":0},{"OBJECT_NAME":"ONEWEB-0622","OBJECT_ID":"2023-004Z","EPOCH":"2025-10-20T07:02:29.955264","MEAN_MOTION":13.11416624,"ECCENTRICITY":0.00019501,"INCLINATION":87.8822,"RA_OF_ASC_NODE":68.8408,"ARG_OF_PERICENTER":73.4121,"MEAN_ANOMALY":286.7221,"EPHEMERIS_TYPE":0,"CLASSIFICATION_TYPE":"U","NORAD_CAT_ID":55163,"ELEMENT_SET_NO":999,"REV_AT_EPOCH":13435,"BSTAR":0.0014096391,"MEAN_MOTION_DOT":5.12e-6,"MEAN_MOTION_DDOT":0},{"OBJECT_NAME":"ONEWEB-0623","OBJECT_ID":"2023-004AA","EPOCH":"2025-10-20T06:54:17.214336","MEAN_MOTION":13.17626737,"ECCENTRICITY":7.386e-5,"INCLINATION":87.9113,"RA_OF_ASC_NODE":53.5925,"ARG_OF_PERICENTER":62.9131,"MEAN_ANOMALY":297.2075,"EPHEMERIS_TYPE":0,"CLASSIFICATION_TYPE":"U","NORAD_CAT_ID":55164,"ELEMENT_SET_NO":999,"REV_AT_EPOCH":13599,"BSTAR":-0.0066183467,"MEAN_MOTION_DOT":-2.555e-5,"MEAN_MOTION_DDOT":0},{"OBJECT_NAME":"ONEWEB-0624","OBJECT_ID":"2023-004AB","EPOCH":"2025-10-20T06:54:52.761888","MEAN_MOTION":13.1291621,"ECCENTRICITY":0.00016072,"INCLINATION":87.8958,"RA_OF_ASC_NODE":38.2913,"ARG_OF_PERICENTER":91.9474,"MEAN_ANOMALY":268.1839,"EPHEMERIS_TYPE":0,"CLASSIFICATION_TYPE":"U","NORAD_CAT_ID":55165,"ELEMENT_SET_NO":999,"REV_AT_EPOCH":13659,"BSTAR":0.00123664,"MEAN_MOTION_DOT":4.61e-6,"MEAN_MOTION_DDOT":0},{"OBJECT_NAME":"ONEWEB-0625","OBJECT_ID":"2023-004AC","EPOCH":"2025-10-20T06:39:39.225312","MEAN_MOTION":13.17648362,"ECCENTRICITY":0.00016149,"INCLINATION":87.9105,"RA_OF_ASC_NODE":53.5903,"ARG_OF_PERICENTER":104.2577,"MEAN_ANOMALY":255.8734,"EPHEMERIS_TYPE":0,"CLASSIFICATION_TYPE":"U","NORAD_CAT_ID":55166,"ELEMENT_SET_NO":999,"REV_AT_EPOCH":13598,"BSTAR":-2.2225475e-5,"MEAN_MOTION_DOT":4.0e-8,"MEAN_MOTION_DDOT":0},{"OBJECT_NAME":"ONEWEB-0626","OBJECT_ID":"2023-004AD","EPOCH":"2025-10-20T06:25:05.884608","MEAN_MOTION":13.17648877,"ECCENTRICITY":0.0002172,"INCLINATION":87.9107,"RA_OF_ASC_NODE":53.5915,"ARG_OF_PERICENTER":102.9493,"MEAN_ANOMALY":257.1881,"EPHEMERIS_TYPE":0,"CLASSIFICATION_TYPE":"U","NORAD_CAT_ID":55167,"ELEMENT_SET_NO":999,"REV_AT_EPOCH":13598,"BSTAR":0.00011300079,"MEAN_MOTION_DOT":5.7e-7,"MEAN_MOTION_DDOT":0},{"OBJECT_NAME":"ONEWEB-0627","OBJECT_ID":"2023-004AE","EPOCH":"2025-10-20T06:08:05.436672","MEAN_MOTION":13.17649788,"ECCENTRICITY":0.00016663,"INCLINATION":87.9106,"RA_OF_ASC_NODE":53.595,"ARG_OF_PERICENTER":78.6021,"MEAN_ANOMALY":281.5297,"EPHEMERIS_TYPE":0,"CLASSIFICATION_TYPE":"U","NORAD_CAT_ID":55168,"ELEMENT_SET_NO":999,"REV_AT_EPOCH":13598,"BSTAR":0.00015783019,"MEAN_MOTION_DOT":7.4e-7,"MEAN_MOTION_DDOT":0},{"OBJECT_NAME":"ONEWEB-0628","OBJECT_ID":"2023-004AF","EPOCH":"2025-10-20T06:10:01.557408","MEAN_MOTION":13.12445916,"ECCENTRICITY":0.00015761,"INCLINATION":87.8969,"RA_OF_ASC_NODE":38.3102,"ARG_OF_PERICENTER":84.1714,"MEAN_ANOMALY":275.9594,"EPHEMERIS_TYPE":0,"CLASSIFICATION_TYPE":"U","NORAD_CAT_ID":55169,"ELEMENT_SET_NO":999,"REV_AT_EPOCH":13656,"BSTAR":-0.0017563828,"MEAN_MOTION_DOT":-6.19e-6,"MEAN_MOTION_DDOT":0}]
